{
  "norad_id": 66733,
  "name": "FLOCK 4H-30",
  "history": [
    {
      "epoch": "2026-05-03T20:03:53.907840Z",
      "apogee_km": 511.4881997858065,
      "perigee_km": 504.336349009418,
      "latitude_deg": 2.6519033032709826e-05,
      "longitude_deg": 35.4488642131826,
      "height_km": 514.0989650073832,
      "semi_major_axis_km": 6886.049274397612,
      "eccentricity": 0.0005193,
      "inclination_deg": 97.4242,
      "raan_deg": 198.1575,
      "arg_perigee_deg": 150.1474,
      "mean_anomaly_deg": 210.0058,
      "mean_motion_rev_day": 15.19314116
    }
  ]
}